CCSDS_OMM_VERS = 2.0
CREATION_DATE  = 
ORIGINATOR     = 

OBJECT_NAME    = SL-3 R/B
OBJECT_ID      = 1988-032B
CENTER_NAME    = EARTH
REF_FRAME      = TEME
TIME_SYSTEM    = UTC
MEAN_ELEMENT_THEORY = SGP/SGP4

EPOCH          = 2026-03-10T20:26:31.320096
MEAN_MOTION    = 15.19925680
ECCENTRICITY   = .0024496
INCLINATION    = 97.5196
RA_OF_ASC_NODE = 53.0985
ARG_OF_PERICENTER = 227.1614
MEAN_ANOMALY   = 132.7563

EPHEMERIS_TYPE = 0
CLASSIFICATION_TYPE = U
NORAD_CAT_ID   = 19046
ELEMENT_SET_NO = 999
REV_AT_EPOCH   = 5228
BSTAR          = .28555E-3
MEAN_MOTION_DOT = .6115E-4
MEAN_MOTION_DDOT = 0

CCSDS_OMM_VERS = 2.0
CREATION_DATE  = 
ORIGINATOR     = 

OBJECT_NAME    = SL-16 R/B
OBJECT_ID      = 1988-039B
CENTER_NAME    = EARTH
REF_FRAME      = TEME
TIME_SYSTEM    = UTC
MEAN_ELEMENT_THEORY = SGP/SGP4

EPOCH          = 2026-03-10T11:21:54.288864
MEAN_MOTION    = 14.19615489
ECCENTRICITY   = .002283
INCLINATION    = 71.0135
RA_OF_ASC_NODE = 66.8899
ARG_OF_PERICENTER = 333.2462
MEAN_ANOMALY   = 26.7483

EPHEMERIS_TYPE = 0
CLASSIFICATION_TYPE = U
NORAD_CAT_ID   = 19120
ELEMENT_SET_NO = 999
REV_AT_EPOCH   = 95849
BSTAR          = .11801E-4
MEAN_MOTION_DOT = -.23E-6
MEAN_MOTION_DDOT = 0

CCSDS_OMM_VERS = 2.0
CREATION_DATE  = 
ORIGINATOR     = 

OBJECT_NAME    = COSMOS 1953
OBJECT_ID      = 1988-050A
CENTER_NAME    = EARTH
REF_FRAME      = TEME
TIME_SYSTEM    = UTC
MEAN_ELEMENT_THEORY = SGP/SGP4

EPOCH          = 2026-03-10T17:43:28.413120
MEAN_MOTION    = 15.28547411
ECCENTRICITY   = .0012536
INCLINATION    = 82.5103
RA_OF_ASC_NODE = 157.1921
ARG_OF_PERICENTER = 119.2292
MEAN_ANOMALY   = 241.0203

EPHEMERIS_TYPE = 0
CLASSIFICATION_TYPE = U
NORAD_CAT_ID   = 19210
ELEMENT_SET_NO = 999
REV_AT_EPOCH   = 3794
BSTAR          = .31844E-3
MEAN_MOTION_DOT = .8896E-4
MEAN_MOTION_DDOT = 0

CCSDS_OMM_VERS = 2.0
CREATION_DATE  = 
ORIGINATOR     = 

OBJECT_NAME    = SL-8 R/B
OBJECT_ID      = 1988-053B
CENTER_NAME    = EARTH
REF_FRAME      = TEME
TIME_SYSTEM    = UTC
MEAN_ELEMENT_THEORY = SGP/SGP4

EPOCH          = 2026-03-10T13:56:06.588384
MEAN_MOTION    = 14.38916358
ECCENTRICITY   = .0021434
INCLINATION    = 74.0459
RA_OF_ASC_NODE = 110.8240
ARG_OF_PERICENTER = 289.9681
MEAN_ANOMALY   = 236.3175

EPHEMERIS_TYPE = 0
CLASSIFICATION_TYPE = U
NORAD_CAT_ID   = 19257
ELEMENT_SET_NO = 999
REV_AT_EPOCH   = 97672
BSTAR          = .10277E-3
MEAN_MOTION_DOT = .291E-5
MEAN_MOTION_DDOT = 0

CCSDS_OMM_VERS = 2.0
CREATION_DATE  = 
ORIGINATOR     = 

OBJECT_NAME    = COSMOS 1975
OBJECT_ID      = 1988-093A
CENTER_NAME    = EARTH
REF_FRAME      = TEME
TIME_SYSTEM    = UTC
MEAN_ELEMENT_THEORY = SGP/SGP4

EPOCH          = 2026-03-10T13:49:35.501376
MEAN_MOTION    = 15.28085245
ECCENTRICITY   = .0012165
INCLINATION    = 82.5182
RA_OF_ASC_NODE = 116.7953
ARG_OF_PERICENTER = 160.4817
MEAN_ANOMALY   = 199.6891

EPHEMERIS_TYPE = 0
CLASSIFICATION_TYPE = U
NORAD_CAT_ID   = 19573
ELEMENT_SET_NO = 999
REV_AT_EPOCH   = 1954
BSTAR          = .26649E-3
MEAN_MOTION_DOT = .7345E-4
MEAN_MOTION_DDOT = 0

CCSDS_OMM_VERS = 2.0
CREATION_DATE  = 
ORIGINATOR     = 

OBJECT_NAME    = SL-14 R/B
OBJECT_ID      = 1988-093B
CENTER_NAME    = EARTH
REF_FRAME      = TEME
TIME_SYSTEM    = UTC
MEAN_ELEMENT_THEORY = SGP/SGP4

EPOCH          = 2026-03-10T20:59:27.572352
MEAN_MOTION    = 14.85658156
ECCENTRICITY   = .0021683
INCLINATION    = 82.5307
RA_OF_ASC_NODE = 40.9312
ARG_OF_PERICENTER = 37.7643
MEAN_ANOMALY   = 23.5648

EPHEMERIS_TYPE = 0
CLASSIFICATION_TYPE = U
NORAD_CAT_ID   = 19574
ELEMENT_SET_NO = 999
REV_AT_EPOCH   = 119
BSTAR          = .81396E-4
MEAN_MOTION_DOT = .732E-5
MEAN_MOTION_DDOT = 0

CCSDS_OMM_VERS = 2.0
CREATION_DATE  = 
ORIGINATOR     = 

OBJECT_NAME    = SL-16 R/B
OBJECT_ID      = 1988-102B
CENTER_NAME    = EARTH
REF_FRAME      = TEME
TIME_SYSTEM    = UTC
MEAN_ELEMENT_THEORY = SGP/SGP4

EPOCH          = 2026-03-10T14:40:14.541024
MEAN_MOTION    = 14.16152666
ECCENTRICITY   = .0014027
INCLINATION    = 71.0001
RA_OF_ASC_NODE = 149.5586
ARG_OF_PERICENTER = 0.2191
MEAN_ANOMALY   = 359.8935

EPHEMERIS_TYPE = 0
CLASSIFICATION_TYPE = U
NORAD_CAT_ID   = 19650
ELEMENT_SET_NO = 999
REV_AT_EPOCH   = 92702
BSTAR          = .18082E-3
MEAN_MOTION_DOT = .31E-5
MEAN_MOTION_DDOT = 0

CCSDS_OMM_VERS = 2.0
CREATION_DATE  = 
ORIGINATOR     = 

OBJECT_NAME    = INTERCOSMOS 24
OBJECT_ID      = 1989-080A
CENTER_NAME    = EARTH
REF_FRAME      = TEME
TIME_SYSTEM    = UTC
MEAN_ELEMENT_THEORY = SGP/SGP4

EPOCH          = 2026-03-10T14:19:26.569920
MEAN_MOTION    = 12.59559336
ECCENTRICITY   = .1186691
INCLINATION    = 82.6026
RA_OF_ASC_NODE = 103.8135
ARG_OF_PERICENTER = 290.7127
MEAN_ANOMALY   = 57.0850

EPHEMERIS_TYPE = 0
CLASSIFICATION_TYPE = U
NORAD_CAT_ID   = 20261
ELEMENT_SET_NO = 999
REV_AT_EPOCH   = 66691
BSTAR          = .25368E-3
MEAN_MOTION_DOT = .852E-5
MEAN_MOTION_DDOT = 0

CCSDS_OMM_VERS = 2.0
CREATION_DATE  = 
ORIGINATOR     = 

OBJECT_NAME    = SL-14 R/B
OBJECT_ID      = 1989-080C
CENTER_NAME    = EARTH
REF_FRAME      = TEME
TIME_SYSTEM    = UTC
MEAN_ELEMENT_THEORY = SGP/SGP4

EPOCH          = 2026-03-10T18:08:49.548192
MEAN_MOTION    = 12.50495176
ECCENTRICITY   = .123061
INCLINATION    = 82.5975
RA_OF_ASC_NODE = 172.5019
ARG_OF_PERICENTER = 182.3126
MEAN_ANOMALY   = 177.1932

EPHEMERIS_TYPE = 0
CLASSIFICATION_TYPE = U
NORAD_CAT_ID   = 20262
ELEMENT_SET_NO = 999
REV_AT_EPOCH   = 66028
BSTAR          = .20245E-3
MEAN_MOTION_DOT = .688E-5
MEAN_MOTION_DDOT = 0

CCSDS_OMM_VERS = 2.0
CREATION_DATE  = 
ORIGINATOR     = 

OBJECT_NAME    = DELTA 1 R/B
OBJECT_ID      = 1989-089B
CENTER_NAME    = EARTH
REF_FRAME      = TEME
TIME_SYSTEM    = UTC
MEAN_ELEMENT_THEORY = SGP/SGP4

EPOCH          = 2026-03-10T14:04:33.679488
MEAN_MOTION    = 14.50663824
ECCENTRICITY   = .007051
INCLINATION    = 97.0705
RA_OF_ASC_NODE = 276.8826
ARG_OF_PERICENTER = 119.1983
MEAN_ANOMALY   = 241.6292

EPHEMERIS_TYPE = 0
CLASSIFICATION_TYPE = U
NORAD_CAT_ID   = 20323
ELEMENT_SET_NO = 999
REV_AT_EPOCH   = 89586
BSTAR          = .11071E-3
MEAN_MOTION_DOT = .414E-5
MEAN_MOTION_DDOT = 0

CCSDS_OMM_VERS = 2.0
CREATION_DATE  = 
ORIGINATOR     = 

OBJECT_NAME    = ARIANE 40 R/B
OBJECT_ID      = 1990-005H
CENTER_NAME    = EARTH
REF_FRAME      = TEME
TIME_SYSTEM    = UTC
MEAN_ELEMENT_THEORY = SGP/SGP4

EPOCH          = 2026-03-10T18:52:25.498272
MEAN_MOTION    = 14.39871277
ECCENTRICITY   = .0009923
INCLINATION    = 98.3081
RA_OF_ASC_NODE = 130.4152
ARG_OF_PERICENTER = 195.2338
MEAN_ANOMALY   = 164.8553

EPHEMERIS_TYPE = 0
CLASSIFICATION_TYPE = U
NORAD_CAT_ID   = 20443
ELEMENT_SET_NO = 999
REV_AT_EPOCH   = 89296
BSTAR          = .11504E-3
MEAN_MOTION_DOT = .319E-5
MEAN_MOTION_DDOT = 0

CCSDS_OMM_VERS = 2.0
CREATION_DATE  = 
ORIGINATOR     = 

OBJECT_NAME    = DELTA 2 R/B(1)
OBJECT_ID      = 1990-008B
CENTER_NAME    = EARTH
REF_FRAME      = TEME
TIME_SYSTEM    = UTC
MEAN_ELEMENT_THEORY = SGP/SGP4

EPOCH          = 2026-03-10T08:05:16.680768
MEAN_MOTION    = 15.56084600
ECCENTRICITY   = .0085251
INCLINATION    = 35.6036
RA_OF_ASC_NODE = 170.6053
ARG_OF_PERICENTER = 264.7126
MEAN_ANOMALY   = 94.3878

EPHEMERIS_TYPE = 0
CLASSIFICATION_TYPE = U
NORAD_CAT_ID   = 20453
ELEMENT_SET_NO = 999
REV_AT_EPOCH   = 92623
BSTAR          = .83948E-3
MEAN_MOTION_DOT = .72113E-3
MEAN_MOTION_DDOT = 0

