SL-3 R/B                
1 19046U 88032B   26069.85175139  .00006115  00000+0  28555-3 0  9993
2 19046  97.5196  53.0985 0024496 227.1614 132.7563 15.19925680 52287
SL-16 R/B               
1 19120U 88039B   26069.47354501 -.00000023  00000+0  11801-4 0  9993
2 19120  71.0135  66.8899 0022830 333.2462  26.7483 14.19615489958499
COSMOS 1953             
1 19210U 88050A   26069.73852330  .00008896  00000+0  31844-3 0  9991
2 19210  82.5103 157.1921 0012536 119.2292 241.0203 15.28547411 37946
SL-8 R/B                
1 19257U 88053B   26069.58063181  .00000291  00000+0  10277-3 0  9994
2 19257  74.0459 110.8240 0021434 289.9681 236.3175 14.38916358976724
COSMOS 1975             
1 19573U 88093A   26069.57610534  .00007345  00000+0  26649-3 0  9995
2 19573  82.5182 116.7953 0012165 160.4817 199.6891 15.28085245 19549
SL-14 R/B               
1 19574U 88093B   26069.87462468  .00000732  00000+0  81396-4 0  9994
2 19574  82.5307  40.9312 0021683  37.7643  23.5648 14.85658156  1190
SL-16 R/B               
1 19650U 88102B   26069.61127941  .00000310  00000+0  18082-3 0  9999
2 19650  71.0001 149.5586 0014027   0.2191 359.8935 14.16152666927027
INTERCOSMOS 24          
1 20261U 89080A   26069.59683530  .00000852  00000+0  25368-3 0  9999
2 20261  82.6026 103.8135 1186691 290.7127  57.0850 12.59559336666919
SL-14 R/B               
1 20262U 89080C   26069.75612903  .00000688  00000+0  20245-3 0  9990
2 20262  82.5975 172.5019 1230610 182.3126 177.1932 12.50495176660283
DELTA 1 R/B             
1 20323U 89089B   26069.58650092  .00000414  00000+0  11071-3 0  9993
2 20323  97.0705 276.8826 0070510 119.1983 241.6292 14.50663824895865
ARIANE 40 R/B           
1 20443U 90005H   26069.78640623  .00000319  00000+0  11504-3 0  9992
2 20443  98.3081 130.4152 0009923 195.2338 164.8553 14.39871277892969
DELTA 2 R/B(1)          
1 20453U 90008B   26069.33699862  .00072113  00000+0  83948-3 0  9998
2 20453  35.6036 170.6053 0085251 264.7126  94.3878 15.56084600926236
